start=new Date('2021-08-23T00:00:00.000Z').valueOf();
sats=[{"TLE_LINE1":"1 46382U 20062BK  21234.69383042  .00000736  00000-0  68256-4 0  9997","SEMIMAJOR_AXIS":"6925.343","MEAN_MOTION":"15.06401903","BSTAR":"0.00006825600000","PERIAPSIS":"546.562","INCLINATION":"53.0560","CENTER_NAME":"EARTH","OBJECT_ID":"2020-062BK","GP_ID":"183272871","RCS_SIZE":"LARGE","ELEMENT_SET_NO":"999","MEAN_MOTION_DOT":"0.00000736","TLE_LINE2":"2 46382  53.0560 223.6384 0000932  66.3518 293.7568 15.06401903 54744","COUNTRY_CODE":"US","EPHEMERIS_TYPE":"0","MEAN_ANOMALY":"293.7568","REV_AT_EPOCH":"5474","DECAY_DATE":null,"FILE":"3101563","MEAN_MOTION_DDOT":"0.0000000000000","REF_FRAME":"TEME","SITE":"AFETR","EPOCH":"2021-08-22T16:39:06.948288","ECCENTRICITY":"0.00009320","LAUNCH_DATE":"2020-09-03","CLASSIFICATION_TYPE":"U","APOAPSIS":"547.853","OBJECT_TYPE":"PAYLOAD","TIME_SYSTEM":"UTC","NORAD_CAT_ID":"46382","OBJECT_NAME":"STARLINK-1769","ARG_OF_PERICENTER":"66.3518","PERIOD":"95.592","MEAN_ELEMENT_THEORY":"SGP4","RA_OF_ASC_NODE":"223.6384"},{"SEMIMAJOR_AXIS":"6925.372","MEAN_MOTION":"15.06392239","TLE_LINE1":"1 46383U 20062BL  21234.81314509 -.00001243  00000-0 -64620-4 0  9991","CENTER_NAME":"EARTH","BSTAR":"-0.00006462000000","PERIAPSIS":"546.793","INCLINATION":"53.0541","RCS_SIZE":"LARGE","ELEMENT_SET_NO":"999","MEAN_MOTION_DOT":"-0.00001243","TLE_LINE2":"2 46383  53.0541 268.0998 0000641  96.8000 263.3062 15.06392239 54124","OBJECT_ID":"2020-062BL","GP_ID":"183271619","DECAY_DATE":null,"EPHEMERIS_TYPE":"0","COUNTRY_CODE":"US","MEAN_ANOMALY":"263.3062","REV_AT_EPOCH":"5412","REF_FRAME":"TEME","MEAN_MOTION_DDOT":"0.0000000000000","SITE":"AFETR","EPOCH":"2021-08-22T19:30:55.735776","FILE":"3101563","ECCENTRICITY":"0.00006410","LAUNCH_DATE":"2020-09-03","CLASSIFICATION_TYPE":"U","NORAD_CAT_ID":"46383","OBJECT_NAME":"STARLINK-1770","ARG_OF_PERICENTER":"96.8000","APOAPSIS":"547.681","OBJECT_TYPE":"PAYLOAD","TIME_SYSTEM":"UTC","PERIOD":"95.593","MEAN_ELEMENT_THEORY":"SGP4","RA_OF_ASC_NODE":"268.0998"},{"LAUNCH_DATE":"2020-09-03","ECCENTRICITY":"0.00001950","CLASSIFICATION_TYPE":"U","FILE":"3101563","MEAN_MOTION_DDOT":"0.0000000000000","REF_FRAME":"TEME","EPOCH":"2021-08-22T19:36:14.123232","SITE":"AFETR","MEAN_ELEMENT_THEORY":"SGP4","PERIOD":"95.593","RA_OF_ASC_NODE":"268.0752","APOAPSIS":"547.372","OBJECT_TYPE":"PAYLOAD","TIME_SYSTEM":"UTC","OBJECT_NAME":"STARLINK-1771","NORAD_CAT_ID":"46384","ARG_OF_PERICENTER":"142.1001","BSTAR":"-0.00007207000000","PERIAPSIS":"547.101","INCLINATION":"53.0529","CENTER_NAME":"EARTH","TLE_LINE1":"1 46384U 20062BM  21234.81683013 -.00001354  00000-0 -72070-4 0  9992","SEMIMAJOR_AXIS":"6925.372","MEAN_MOTION":"15.06392508","COUNTRY_CODE":"US","EPHEMERIS_TYPE":"0","REV_AT_EPOCH":"5412","MEAN_ANOMALY":"218.0002","DECAY_DATE":null,"GP_ID":"183271869","OBJECT_ID":"2020-062BM","RCS_SIZE":"LARGE","ELEMENT_SET_NO":"999","TLE_LINE2":"2 46384  53.0529 268.0752 0000195 142.1001 218.0002 15.06392508 54129","MEAN_MOTION_DOT":"-0.00001354"},{"DECAY_DATE":null,"COUNTRY_CODE":"US","EPHEMERIS_TYPE":"0","MEAN_ANOMALY":"273.6726","REV_AT_EPOCH":"4932","RCS_SIZE":"LARGE","ELEMENT_SET_NO":"999","MEAN_MOTION_DOT":"0.00000572","TLE_LINE2":"2 46532  53.0563  68.0866 0001875  86.4478 273.6726 15.06396900 49326","OBJECT_ID":"2020-070A","GP_ID":"183271883","CENTER_NAME":"EARTH","PERIAPSIS":"545.925","BSTAR":"0.00005731100000","INCLINATION":"53.0563","SEMIMAJOR_AXIS":"6925.358","MEAN_MOTION":"15.06396900","TLE_LINE1":"1 46532U 20070A   21234.81682670  .00000572  00000-0  57311-4 0  9994","PERIOD":"95.592","MEAN_ELEMENT_THEORY":"SGP4","RA_OF_ASC_NODE":"68.0866","OBJECT_NAME":"STARLINK-1644","NORAD_CAT_ID":"46532","ARG_OF_PERICENTER":"86.4478","APOAPSIS":"548.522","OBJECT_TYPE":"PAYLOAD","TIME_SYSTEM":"UTC","ECCENTRICITY":"0.00018750","LAUNCH_DATE":"2020-10-06","CLASSIFICATION_TYPE":"U","REF_FRAME":"TEME","MEAN_MOTION_DDOT":"0.0000000000000","SITE":"AFETR","EPOCH":"2021-08-22T19:36:13.826880","FILE":"3101563"},{"ARG_OF_PERICENTER":"87.1180","OBJECT_NAME":"STARLINK-1648","NORAD_CAT_ID":"46533","OBJECT_TYPE":"PAYLOAD","TIME_SYSTEM":"UTC","APOAPSIS":"548.472","RA_OF_ASC_NODE":"67.7441","MEAN_ELEMENT_THEORY":"SGP4","PERIOD":"95.592","EPOCH":"2021-08-22T21:27:41.958432","SITE":"AFETR","REF_FRAME":"TEME","MEAN_MOTION_DDOT":"0.0000000000000","FILE":"3101563","CLASSIFICATION_TYPE":"U","LAUNCH_DATE":"2020-10-06","ECCENTRICITY":"0.00018260","TLE_LINE2":"2 46533  53.0560  67.7441 0001826  87.1180 273.0018 15.06402023 49336","MEAN_MOTION_DOT":"0.00001075","RCS_SIZE":"LARGE","ELEMENT_SET_NO":"999","GP_ID":"183272134","OBJECT_ID":"2020-070B","DECAY_DATE":null,"REV_AT_EPOCH":"4933","MEAN_ANOMALY":"273.0018","EPHEMERIS_TYPE":"0","COUNTRY_CODE":"US","MEAN_MOTION":"15.06402023","SEMIMAJOR_AXIS":"6925.342","TLE_LINE1":"1 46533U 20070B   21234.89423563  .00001075  00000-0  91084-4 0  9991","CENTER_NAME":"EARTH","PERIAPSIS":"545.943","BSTAR":"0.00009108400000","INCLINATION":"53.0560"},{"DECAY_DATE":null,"REV_AT_EPOCH":"4932","MEAN_ANOMALY":"263.5408","COUNTRY_CODE":"US","EPHEMERIS_TYPE":"0","TLE_LINE2":"2 46534  53.0556  68.1202 0001908  96.5798 263.5408 15.06394145 49323","MEAN_MOTION_DOT":"0.00000688","RCS_SIZE":"LARGE","ELEMENT_SET_NO":"999","GP_ID":"183272385","OBJECT_ID":"2020-070C","CENTER_NAME":"EARTH","PERIAPSIS":"545.910","INCLINATION":"53.0556","BSTAR":"0.00006508400000","MEAN_MOTION":"15.06394145","SEMIMAJOR_AXIS":"6925.367","TLE_LINE1":"1 46534U 20070C   21234.80946345  .00000688  00000-0  65084-4 0  9991","RA_OF_ASC_NODE":"68.1202","MEAN_ELEMENT_THEORY":"SGP4","PERIOD":"95.593","ARG_OF_PERICENTER":"96.5798","OBJECT_NAME":"STARLINK-1659","NORAD_CAT_ID":"46534","TIME_SYSTEM":"UTC","OBJECT_TYPE":"PAYLOAD","APOAPSIS":"548.553","CLASSIFICATION_TYPE":"U","LAUNCH_DATE":"2020-10-06","ECCENTRICITY":"0.00019080","EPOCH":"2021-08-22T19:25:37.642080","SITE":"AFETR","MEAN_MOTION_DDOT":"0.0000000000000","REF_FRAME":"TEME","FILE":"3101563"},{"REV_AT_EPOCH":"4931","MEAN_ANOMALY":"265.6072","COUNTRY_CODE":"US","EPHEMERIS_TYPE":"0","DECAY_DATE":null,"GP_ID":"183271133","OBJECT_ID":"2020-070D","TLE_LINE2":"2 46535  53.0544  68.1739 0001999  94.5145 265.6072 15.06391014 49311","MEAN_MOTION_DOT":"0.00000171","RCS_SIZE":"LARGE","ELEMENT_SET_NO":"999","INCLINATION":"53.0544","PERIAPSIS":"545.857","BSTAR":"0.00003042100000","CENTER_NAME":"EARTH","TLE_LINE1":"1 46535U 20070D   21234.79840661  .00000171  00000-0  30421-4 0  9998","MEAN_MOTION":"15.06391014","SEMIMAJOR_AXIS":"6925.376","RA_OF_ASC_NODE":"68.1739","MEAN_ELEMENT_THEORY":"SGP4","PERIOD":"95.593","TIME_SYSTEM":"UTC","OBJECT_TYPE":"PAYLOAD","APOAPSIS":"548.625","ARG_OF_PERICENTER":"94.5145","NORAD_CAT_ID":"46535","OBJECT_NAME":"STARLINK-1663","CLASSIFICATION_TYPE":"U","LAUNCH_DATE":"2020-10-06","ECCENTRICITY":"0.00019990","FILE":"3101563","EPOCH":"2021-08-22T19:09:42.331104","SITE":"AFETR","MEAN_MOTION_DDOT":"0.0000000000000","REF_FRAME":"TEME"},{"REF_FRAME":"TEME","MEAN_MOTION_DDOT":"0.0000000000000","SITE":"AFETR","EPOCH":"2021-08-22T21:36:24.560928","FILE":"3101563","ECCENTRICITY":"0.00014760","LAUNCH_DATE":"2020-10-06","CLASSIFICATION_TYPE":"U","NORAD_CAT_ID":"46536","OBJECT_NAME":"STARLINK-1668","ARG_OF_PERICENTER":"62.4683","APOAPSIS":"440.742","TIME_SYSTEM":"UTC","OBJECT_TYPE":"PAYLOAD","PERIOD":"93.375","MEAN_ELEMENT_THEORY":"SGP4","RA_OF_ASC_NODE":"62.8425","SEMIMAJOR_AXIS":"6817.870","MEAN_MOTION":"15.42160759","TLE_LINE1":"1 46536U 20070E   21234.90028427 -.00001247  00000-0 -19190-4 0  9997","CENTER_NAME":"EARTH","PERIAPSIS":"438.729","BSTAR":"-0.00001919000000","INCLINATION":"53.0554","RCS_SIZE":"LARGE","ELEMENT_SET_NO":"999","TLE_LINE2":"2 46536  53.0554  62.8425 0001476  62.4683 297.6472 15.42160759 49406","MEAN_MOTION_DOT":"-0.00001247","OBJECT_ID":"2020-070E","GP_ID":"183271383","DECAY_DATE":null,"COUNTRY_CODE":"US","EPHEMERIS_TYPE":"0","MEAN_ANOMALY":"297.6472","REV_AT_EPOCH":"4940"},{"EPHEMERIS_TYPE":"0","COUNTRY_CODE":"US","MEAN_ANOMALY":"262.2168","REV_AT_EPOCH":"4932","DECAY_DATE":null,"OBJECT_ID":"2020-070F","GP_ID":"183272635","ELEMENT_SET_NO":"999","RCS_SIZE":"LARGE","TLE_LINE2":"2 46537  53.0555  68.0519 0001935  97.9041 262.2168 15.06398671 49328","MEAN_MOTION_DOT":"0.00000802","PERIAPSIS":"545.878","BSTAR":"0.00007273800000","INCLINATION":"53.0555","CENTER_NAME":"EARTH","TLE_LINE1":"1 46537U 20070F   21234.82420788  .00000802  00000-0  72738-4 0  9996","SEMIMAJOR_AXIS":"6925.353","MEAN_MOTION":"15.06398671","PERIOD":"95.592","MEAN_ELEMENT_THEORY":"SGP4","RA_OF_ASC_NODE":"68.0519","APOAPSIS":"548.558","OBJECT_TYPE":"PAYLOAD","TIME_SYSTEM":"UTC","NORAD_CAT_ID":"46537","OBJECT_NAME":"STARLINK-1672","ARG_OF_PERICENTER":"97.9041","ECCENTRICITY":"0.00019350","LAUNCH_DATE":"2020-10-06","CLASSIFICATION_TYPE":"U","FILE":"3101563","MEAN_MOTION_DDOT":"0.0000000000000","REF_FRAME":"TEME","SITE":"AFETR","EPOCH":"2021-08-22T19:46:51.560832"},{"TLE_LINE1":"1 46538U 20070G   21234.86843378 -.00001275  00000-0 -66719-4 0  9994","MEAN_MOTION":"15.06390834","SEMIMAJOR_AXIS":"6925.377","PERIAPSIS":"545.786","INCLINATION":"53.0562","BSTAR":"-0.00006671900000","CENTER_NAME":"EARTH","OBJECT_ID":"2020-070G","GP_ID":"183272886","TLE_LINE2":"2 46538  53.0562  67.8594 0002102 103.1631 256.9592 15.06390834 49323","MEAN_MOTION_DOT":"-0.00001275","ELEMENT_SET_NO":"999","RCS_SIZE":"LARGE","MEAN_ANOMALY":"256.9592","REV_AT_EPOCH":"4932","EPHEMERIS_TYPE":"0","COUNTRY_CODE":"US","DECAY_DATE":null,"FILE":"3101563","SITE":"AFETR","EPOCH":"2021-08-22T20:50:32.678592","MEAN_MOTION_DDOT":"0.0000000000000","REF_FRAME":"TEME","CLASSIFICATION_TYPE":"U","ECCENTRICITY":"0.00021020","LAUNCH_DATE":"2020-10-06","TIME_SYSTEM":"UTC","OBJECT_TYPE":"PAYLOAD","APOAPSIS":"548.697","ARG_OF_PERICENTER":"103.1631","NORAD_CAT_ID":"46538","OBJECT_NAME":"STARLINK-1678","RA_OF_ASC_NODE":"67.8594","PERIOD":"95.593","MEAN_ELEMENT_THEORY":"SGP4"}];
